[{"OBJECT_NAME":"WGS F9 (USA 275)","OBJECT_ID":"2017-016A","EPOCH":"2026-04-05T04:07:50.525184","MEAN_MOTION":1.00272892,"ECCENTRICITY":2.511e-5,"INCLINATION":0.0089,"RA_OF_ASC_NODE":214.1386,"ARG_OF_PERICENTER":280.9028,"MEAN_ANOMALY":108.3899,"EPHEMERIS_TYPE":0,"CLASSIFICATION_TYPE":"U","NORAD_CAT_ID":42075,"ELEMENT_SET_NO":999,"REV_AT_EPOCH":3316,"BSTAR":0,"MEAN_MOTION_DOT":-9.5e-7,"MEAN_MOTION_DDOT":0},{"OBJECT_NAME":"SES-10","OBJECT_ID":"2017-017A","EPOCH":"2026-04-04T22:44:14.616096","MEAN_MOTION":1.00271137,"ECCENTRICITY":0.00029539,"INCLINATION":0.019,"RA_OF_ASC_NODE":90.0286,"ARG_OF_PERICENTER":299.7399,"MEAN_ANOMALY":77.6474,"EPHEMERIS_TYPE":0,"CLASSIFICATION_TYPE":"U","NORAD_CAT_ID":42432,"ELEMENT_SET_NO":999,"REV_AT_EPOCH":3302,"BSTAR":0,"MEAN_MOTION_DOT":-2.72e-6,"MEAN_MOTION_DDOT":0},{"OBJECT_NAME":"CZ-3B DEB","OBJECT_ID":"2010-042Z","EPOCH":"2026-04-02T02:10:37.701696","MEAN_MOTION":1.81277562,"ECCENTRICITY":0.75040772,"INCLINATION":30.2807,"RA_OF_ASC_NODE":272.353,"ARG_OF_PERICENTER":199.3916,"MEAN_ANOMALY":99.0513,"EPHEMERIS_TYPE":0,"CLASSIFICATION_TYPE":"U","NORAD_CAT_ID":42458,"ELEMENT_SET_NO":999,"REV_AT_EPOCH":7509,"BSTAR":0.0082497218,"MEAN_MOTION_DOT":2.05e-6,"MEAN_MOTION_DDOT":0},{"OBJECT_NAME":"CZ-3B DEB","OBJECT_ID":"2010-042AB","EPOCH":"2026-04-05T03:54:17.961696","MEAN_MOTION":1.90173789,"ECCENTRICITY":0.74780066,"INCLINATION":29.8594,"RA_OF_ASC_NODE":122.2268,"ARG_OF_PERICENTER":69.4294,"MEAN_ANOMALY":351.7811,"EPHEMERIS_TYPE":0,"CLASSIFICATION_TYPE":"U","NORAD_CAT_ID":42460,"ELEMENT_SET_NO":999,"REV_AT_EPOCH":54,"BSTAR":0.0053318585,"MEAN_MOTION_DOT":2.71e-6,"MEAN_MOTION_DDOT":0},{"OBJECT_NAME":"CZ-3B DEB","OBJECT_ID":"2010-042AF","EPOCH":"2026-04-04T14:31:10.001568","MEAN_MOTION":1.82495801,"ECCENTRICITY":0.73859067,"INCLINATION":24.6906,"RA_OF_ASC_NODE":292.2981,"ARG_OF_PERICENTER":9.6538,"MEAN_ANOMALY":359.1068,"EPHEMERIS_TYPE":0,"CLASSIFICATION_TYPE":"U","NORAD_CAT_ID":42464,"ELEMENT_SET_NO":999,"REV_AT_EPOCH":8118,"BSTAR":0,"MEAN_MOTION_DOT":-8.4e-7,"MEAN_MOTION_DDOT":0},{"OBJECT_NAME":"CZ-3B DEB","OBJECT_ID":"2011-077AL","EPOCH":"2026-04-03T23:40:36.179904","MEAN_MOTION":1.89262175,"ECCENTRICITY":0.7459957,"INCLINATION":26.4732,"RA_OF_ASC_NODE":330.0668,"ARG_OF_PERICENTER":89.7734,"MEAN_ANOMALY":346.544,"EPHEMERIS_TYPE":0,"CLASSIFICATION_TYPE":"U","NORAD_CAT_ID":42471,"ELEMENT_SET_NO":999,"REV_AT_EPOCH":3328,"BSTAR":0.0027902433,"MEAN_MOTION_DOT":-1.27e-6,"MEAN_MOTION_DDOT":0},{"OBJECT_NAME":"CZ-3B DEB","OBJECT_ID":"2011-077AN","EPOCH":"2026-04-03T20:39:49.398624","MEAN_MOTION":1.69221017,"ECCENTRICITY":0.71584158,"INCLINATION":23.2231,"RA_OF_ASC_NODE":77.1708,"ARG_OF_PERICENTER":80.1586,"MEAN_ANOMALY":347.563,"EPHEMERIS_TYPE":0,"CLASSIFICATION_TYPE":"U","NORAD_CAT_ID":42473,"ELEMENT_SET_NO":999,"REV_AT_EPOCH":6183,"BSTAR":0,"MEAN_MOTION_DOT":-1.49e-6,"MEAN_MOTION_DDOT":0},{"OBJECT_NAME":"CZ-3B DEB","OBJECT_ID":"2011-077AP","EPOCH":"2026-04-02T02:06:51.151392","MEAN_MOTION":1.66952266,"ECCENTRICITY":0.71483129,"INCLINATION":22.3924,"RA_OF_ASC_NODE":101.8578,"ARG_OF_PERICENTER":49.2052,"MEAN_ANOMALY":353.8964,"EPHEMERIS_TYPE":0,"CLASSIFICATION_TYPE":"U","NORAD_CAT_ID":42474,"ELEMENT_SET_NO":999,"REV_AT_EPOCH":6757,"BSTAR":0,"MEAN_MOTION_DOT":-1.22e-6,"MEAN_MOTION_DDOT":0},{"OBJECT_NAME":"CZ-3B DEB","OBJECT_ID":"2011-077AQ","EPOCH":"2026-04-04T20:43:07.159584","MEAN_MOTION":1.91448625,"ECCENTRICITY":0.7417276,"INCLINATION":26.5383,"RA_OF_ASC_NODE":324.3363,"ARG_OF_PERICENTER":95.6287,"MEAN_ANOMALY":344.3463,"EPHEMERIS_TYPE":0,"CLASSIFICATION_TYPE":"U","NORAD_CAT_ID":42475,"ELEMENT_SET_NO":999,"REV_AT_EPOCH":3148,"BSTAR":0.01267484,"MEAN_MOTION_DOT":3.0e-7,"MEAN_MOTION_DDOT":0},{"OBJECT_NAME":"ARIANE 2 DEB","OBJECT_ID":"1989-006CM","EPOCH":"2026-04-04T22:40:59.928384","MEAN_MOTION":2.17624712,"ECCENTRICITY":0.66921807,"INCLINATION":8.6221,"RA_OF_ASC_NODE":66.6301,"ARG_OF_PERICENTER":127.7694,"MEAN_ANOMALY":329.3266,"EPHEMERIS_TYPE":0,"CLASSIFICATION_TYPE":"U","NORAD_CAT_ID":42485,"ELEMENT_SET_NO":999,"REV_AT_EPOCH":9697,"BSTAR":0,"MEAN_MOTION_DOT":-1.73e-6,"MEAN_MOTION_DDOT":0},{"OBJECT_NAME":"CHINASAT 16 (SJ-13)","OBJECT_ID":"2017-018A","EPOCH":"2026-04-05T06:25:29.566848","MEAN_MOTION":1.00269566,"ECCENTRICITY":0.00040827,"INCLINATION":0.0865,"RA_OF_ASC_NODE":84.9215,"ARG_OF_PERICENTER":170.2568,"MEAN_ANOMALY":145.241,"EPHEMERIS_TYPE":0,"CLASSIFICATION_TYPE":"U","NORAD_CAT_ID":42662,"ELEMENT_SET_NO":999,"REV_AT_EPOCH":3301,"BSTAR":0,"MEAN_MOTION_DOT":-3.51e-6,"MEAN_MOTION_DDOT":0},{"OBJECT_NAME":"KOREASAT 7","OBJECT_ID":"2017-023A","EPOCH":"2026-04-04T23:36:17.125056","MEAN_MOTION":1.0027159,"ECCENTRICITY":0.00010675,"INCLINATION":0.0182,"RA_OF_ASC_NODE":56.2643,"ARG_OF_PERICENTER":317.491,"MEAN_ANOMALY":289.5079,"EPHEMERIS_TYPE":0,"CLASSIFICATION_TYPE":"U","NORAD_CAT_ID":42691,"ELEMENT_SET_NO":999,"REV_AT_EPOCH":3263,"BSTAR":0,"MEAN_MOTION_DOT":-3.61e-6,"MEAN_MOTION_DDOT":0},{"OBJECT_NAME":"SGDC","OBJECT_ID":"2017-023B","EPOCH":"2026-04-04T16:07:30.365472","MEAN_MOTION":1.00272559,"ECCENTRICITY":0.00029589,"INCLINATION":0.0463,"RA_OF_ASC_NODE":72.2068,"ARG_OF_PERICENTER":319.7707,"MEAN_ANOMALY":328.0332,"EPHEMERIS_TYPE":0,"CLASSIFICATION_TYPE":"U","NORAD_CAT_ID":42692,"ELEMENT_SET_NO":999,"REV_AT_EPOCH":3267,"BSTAR":0,"MEAN_MOTION_DOT":-2.49e-6,"MEAN_MOTION_DDOT":0},{"OBJECT_NAME":"GSAT-9","OBJECT_ID":"2017-024A","EPOCH":"2026-04-05T06:16:38.766720","MEAN_MOTION":1.00274954,"ECCENTRICITY":0.00029293,"INCLINATION":0.0395,"RA_OF_ASC_NODE":6.3728,"ARG_OF_PERICENTER":3.3162,"MEAN_ANOMALY":15.3184,"EPHEMERIS_TYPE":0,"CLASSIFICATION_TYPE":"U","NORAD_CAT_ID":42695,"ELEMENT_SET_NO":999,"REV_AT_EPOCH":3256,"BSTAR":0,"MEAN_MOTION_DOT":-2.85e-6,"MEAN_MOTION_DDOT":0},{"OBJECT_NAME":"INMARSAT 5-F4","OBJECT_ID":"2017-025A","EPOCH":"2026-04-05T04:27:26.145792","MEAN_MOTION":1.00269581,"ECCENTRICITY":2.329e-5,"INCLINATION":0.0168,"RA_OF_ASC_NODE":206.6784,"ARG_OF_PERICENTER":213.7969,"MEAN_ANOMALY":256.398,"EPHEMERIS_TYPE":0,"CLASSIFICATION_TYPE":"U","NORAD_CAT_ID":42698,"ELEMENT_SET_NO":999,"REV_AT_EPOCH":3254,"BSTAR":0,"MEAN_MOTION_DOT":0,"MEAN_MOTION_DDOT":0},{"OBJECT_NAME":"SES-15","OBJECT_ID":"2017-026A","EPOCH":"2026-04-05T05:49:38.479008","MEAN_MOTION":1.00270997,"ECCENTRICITY":7.603e-5,"INCLINATION":0.0309,"RA_OF_ASC_NODE":319.9281,"ARG_OF_PERICENTER":63.9952,"MEAN_ANOMALY":127.8662,"EPHEMERIS_TYPE":0,"CLASSIFICATION_TYPE":"U","NORAD_CAT_ID":42709,"ELEMENT_SET_NO":999,"REV_AT_EPOCH":670,"BSTAR":0,"MEAN_MOTION_DOT":6.1e-7,"MEAN_MOTION_DDOT":0},{"OBJECT_NAME":"COSMOS 2518","OBJECT_ID":"2017-027A","EPOCH":"2026-04-04T22:19:51.272256","MEAN_MOTION":2.01008565,"ECCENTRICITY":0.7010375,"INCLINATION":63.1019,"RA_OF_ASC_NODE":257.2787,"ARG_OF_PERICENTER":273.5744,"MEAN_ANOMALY":15.5114,"EPHEMERIS_TYPE":0,"CLASSIFICATION_TYPE":"U","NORAD_CAT_ID":42719,"ELEMENT_SET_NO":999,"REV_AT_EPOCH":6493,"BSTAR":0,"MEAN_MOTION_DOT":-1.054e-5,"MEAN_MOTION_DDOT":0}]
