WGS F9 (USA 275)        
1 42075U 17016A   26095.17211256 -.00000095  00000+0  00000+0 0  9993
2 42075   0.0089 214.1386 0000251 280.9028 108.3899  1.00272892 33161
SES-10                  
1 42432U 17017A   26094.94739139 -.00000272  00000+0  00000+0 0  9997
2 42432   0.0190  90.0286 0002953 299.7399  77.6474  1.00271137 33024
CZ-3B DEB               
1 42458U 10042Z   26092.09071414  .00000205  00000+0  82497-2 0  9993
2 42458  30.2807 272.3530 7504077 199.3916  99.0513  1.81277562 75092
CZ-3B DEB               
1 42460U 10042AB  26095.16270789  .00000271  00000+0  53319-2 0  9997
2 42460  29.8594 122.2268 7478006  69.4294 351.7811  1.90173789   544
CZ-3B DEB               
1 42464U 10042AF  26094.60497687 -.00000084  00000+0  00000+0 0  9996
2 42464  24.6906 292.2981 7385906   9.6538 359.1068  1.82495801 81189
CZ-3B DEB               
1 42471U 11077AL  26093.98652986 -.00000127  00000+0  27902-2 0  9999
2 42471  26.4732 330.0668 7459957  89.7734 346.5440  1.89262175 33287
CZ-3B DEB               
1 42473U 11077AN  26093.86098841 -.00000149  00000+0  00000+0 0  9993
2 42473  23.2231  77.1708 7158415  80.1586 347.5630  1.69221017 61839
CZ-3B DEB               
1 42474U 11077AP  26092.08809203 -.00000122  00000+0  00000+0 0  9990
2 42474  22.3924 101.8578 7148312  49.2052 353.8964  1.66952266 67579
CZ-3B DEB               
1 42475U 11077AQ  26094.86327731  .00000030  00000+0  12675-1 0  9990
2 42475  26.5383 324.3363 7417276  95.6287 344.3463  1.91448625 31489
ARIANE 2 DEB            
1 42485U 89006CM  26094.94513806 -.00000173  00000+0  00000+0 0  9993
2 42485   8.6221  66.6301 6692180 127.7694 329.3266  2.17624712 96978
CHINASAT 16 (SJ-13)     
1 42662U 17018A   26095.26770332 -.00000351  00000+0  00000+0 0  9997
2 42662   0.0865  84.9215 0004082 170.2568 145.2410  1.00269566 33012
KOREASAT 7              
1 42691U 17023A   26094.98353154 -.00000361  00000+0  00000+0 0  9993
2 42691   0.0182  56.2643 0001067 317.4910 289.5079  1.00271590 32639
SGDC                    
1 42692U 17023B   26094.67187923 -.00000249  00000+0  00000+0 0  9994
2 42692   0.0463  72.2068 0002958 319.7707 328.0332  1.00272559 32671
GSAT-9                  
1 42695U 17024A   26095.26155980 -.00000285  00000+0  00000+0 0  9992
2 42695   0.0395   6.3728 0002929   3.3162  15.3184  1.00274954 32568
INMARSAT 5-F4           
1 42698U 17025A   26095.18571928  .00000000  00000+0  00000+0 0  9995
2 42698   0.0168 206.6784 0000232 213.7969 256.3980  1.00269581 32542
SES-15                  
1 42709U 17026A   26095.24280647  .00000061  00000+0  00000+0 0  9998
2 42709   0.0309 319.9281 0000760  63.9952 127.8662  1.00270997  6706
COSMOS 2518             
1 42719U 17027A   26094.93045454 -.00001054  00000+0  00000+0 0  9994
2 42719  63.1019 257.2787 7010375 273.5744  15.5114  2.01008565 64934
